RADFXSAT (FOX-1B)       
1 43017U 17073E   24150.62802585  .00008498  00000+0  52929-3 0  9999
2 43017  97.5800  26.7736 0211306 356.3096   3.6554 14.93091525352891
EAGLESAT 1              
1 43018U 17073F   24150.58283394  .00018766  00000+0  91318-3 0  9990
2 43018  97.5978  35.4745 0175400 329.3747  29.7330 15.05852384353290
JILIN-1 04              
1 43022U 17074A   24150.59116225  .00006830  00000+0  31691-3 0  9992
2 43022  97.4860 242.4717 0005641 348.4660  11.6445 15.20350314359700
JILIN-1 05              
1 43023U 17074B   24150.53520436  .00005909  00000+0  27538-3 0  9991
2 43023  97.4885 242.9263 0006361   4.8933 355.2363 15.20251648359701
JILIN-1 06              
1 43024U 17074C   24150.59100108  .00004319  00000+0  21721-3 0  9990
2 43024  97.4880 241.8256 0009297   7.7882 352.3494 15.17733205359649
IRIDIUM 116             
1 43072U 17083C   24150.38948251  .00000338  00000+0  11346-3 0  9998
2 43072  86.3951 274.9212 0002142  94.6961 265.4480 14.34217096336841
IRIDIUM 130             
1 43073U 17083D   24150.42753732  .00000292  00000+0  97345-4 0  9995
2 43073  86.3959 275.1078 0002129  94.0354 266.1085 14.34218204336793
LKW-2                   
1 43080U 17084A   24150.58165557  .00008637  00000+0  36213-3 0  9990
2 43080  97.2245 211.7754 0001574  73.7711 286.3700 15.23732816357689
SUPERVIEW-1 03          
1 43099U 18002A   24150.55473821  .00016478  00000+0  48905-3 0  9997
2 43099  97.3750 230.7886 0004768 130.4001 229.7658 15.34869530353752
SUPERVIEW-1 04          
1 43100U 18002B   24150.55970788  .00017853  00000+0  50947-3 0  9991
2 43100  97.3771 231.3545 0001189 133.6822 226.4521 15.36097304353776
CARTOSAT-2F             
1 43111U 18004A   24150.59913555  .00006197  00000+0  29695-3 0  9993
2 43111  97.4317 210.3843 0001421  99.0906 261.0490 15.19277501353679
CARBONITE 2             
1 43115U 18004E   24150.18151595  .00013052  00000+0  31349-3 0  9997
2 43115  97.2686 221.2960 0005805 354.5847   5.5336 15.41456536355016
CORVUS BC3              
1 43118U 18004H   24150.46991858  .00398610  64664-4  10636-2 0  9997
2 43118  97.2759 236.6067 0008630 266.3176  93.7112 15.94460812355967
LKW-3                   
1 43146U 18006A   24150.57227003  .00008512  00000+0  36473-3 0  9992
2 43146  97.5698 284.8609 0003212 221.0026 139.0969 15.23018023354466
ASNARO-2                
1 43152U 18007A   24150.54840210  .00012476  00000+0  54243-3 0  9997
2 43152  97.4132 157.5239 0001670  54.7820 305.3572 15.22408000353519
XIAOXIANG-2             
1 43155U 18008A   24150.57740896  .00084774  00000+0  11514-2 0  9996
2 43155  97.2369 204.2411 0008505 152.1741 207.9971 15.57294173352008
ZHOU ENLAI              
1 43156U 18008B   24150.55440955  .00163623  00000+0  14391-2 0  9995
2 43156  97.2385 205.9716 0006278 172.6915 187.4439 15.68247509352024
QUANTUTONG 1            
1 43158U 18008D   24150.56318072  .00043412  00000+0  90182-3 0  9998
2 43158  97.2553 199.1296 0008823 154.5556 205.6130 15.45509751351595
JILIN-1 07              
1 43159U 18008E   24150.55740843  .00005741  00000+0  27982-3 0  9994
2 43159  97.2457 184.5498 0011419 188.1600 171.9451 15.18651104350746
JILIN-1 08              
1 43160U 18008F   24150.56485591  .00006028  00000+0  29589-3 0  9997
2 43160  97.2463 184.2881 0007802 198.4083 161.6871 15.18412104350734
LEMUR-2-URAMCHANSOL     
1 43183U 18014D   24150.30203009  .00014150  00000+0  75452-3 0  9998
2 43183  97.5898  54.9872 0014727  53.9955 306.2640 15.15191052345989
LEMUR-2-KADI            
1 43184U 18014E   24150.25462907  .00009728  00000+0  55356-3 0  9993
2 43184  97.5706  53.0015 0012646  44.9092 315.3159 15.12992929345904
S-NET D                 
1 43186U 18014G   24150.29743523  .00003496  00000+0  25459-3 0  9992
2 43186  97.5910  52.4708 0012211  73.7808 286.4761 15.04363698345664
S-NET B                 
1 43187U 18014H   24150.29961466  .00003314  00000+0  24157-3 0  9994
2 43187  97.5920  52.4216 0013080  69.8694 290.3938 15.04357863345661
S-NET A                 
1 43188U 18014J   24150.29860429  .00003416  00000+0  24881-3 0  9999
2 43188  97.5923  52.5314 0012901  70.2989 289.9627 15.04365094345663
S-NET C                 
1 43189U 18014K   24150.30177776  .00003331  00000+0  24260-3 0  9995
2 43189  97.5944  52.4786 0014702  63.7000 296.5735 15.04361364344211
GOMX-4B                 
1 43196U 18015E   24150.46807585  .00046107  00000+0  53726-3 0  9996
2 43196  97.6075 322.6773 0006494  23.7851 336.3705 15.61523283352607
GOMX-4A                 
1 43197U 18015F   24150.53185293  .00083621  00000+0  63187-3 0  9994
2 43197  97.5973 327.5503 0004229   2.4981 357.6302 15.72180467352942
PAZ                     
1 43215U 18020A   24150.58006668  .00002847  00000+0  13869-3 0  9997
2 43215  97.4458 157.7095 0001758  89.8040 270.3396 15.19152451347354
GOES 17                 
1 43226U 18022A   24149.33035407 -.00000083  00000+0  00000+0 0  9995
2 43226   0.0453 124.0144 0000851 321.2099 175.3589  1.00271495 22907
LKW-4                   
1 43236U 18025A   24150.33618781  .00008227  00000+0  34629-3 0  9998
2 43236  97.5562 282.4212 0003308 159.4108 200.7263 15.23630704344830
ZHUHAI-1 OHS-01         
1 43439U 18040A   24150.58263118  .00036365  00000+0  65723-3 0  9990
2 43439  97.1293 197.6855 0005696  31.6082 328.5510 15.49602825338665
ZHUHAI-1 OVS-02         
1 43440U 18040B   24150.59990242  .00031254  00000+0  61674-3 0  9991
2 43440  97.1348 197.7149 0006349  47.0875 313.0907 15.47097422338648
ZHUHAI-1 OHS-02         
1 43441U 18040C   24149.66869140  .00017524  00000+0  52946-3 0  9996
2 43441  97.1431 200.4060 0012686  42.3441 317.8779 15.34216349338516
ZHUHAI-1 OHS-04         
1 43443U 18040E   24150.58871209  .00037693  00000+0  66566-3 0  9992
2 43443  97.1364 199.0817 0002414  51.9467 308.2003 15.50268387338687
GAOFEN-6                
1 43484U 18048A   24150.53301874  .00001136  00000+0  16954-3 0  9995
2 43484  97.8638 225.3986 0013087  79.4270 280.8414 14.76648838322918
LUOJIA-1 01             
1 43485U 18048B   24150.58411357  .00002498  00000+0  32743-3 0  9995
2 43485  97.8746 229.6469 0011305  58.0144 302.2166 14.81180737323139
PAKTES 1A               
1 43529U 18056A   24150.60709030  .00002782  00000+0  27567-3 0  9998
2 43529  98.0326 272.3379 0025186  72.7851 287.6121 14.92445275319988
PRSS 1                  
1 43530U 18056B   24150.51984903  .00001263  00000+0  17715-3 0  9991
2 43530  97.8647 225.4176 0001225  88.5413 271.5939 14.79176638317632
HAIYANG-1C              
1 43609U 18068A   24150.56073550  .00000229  00000+0  97706-4 0  9993
2 43609  98.6064 218.9956 0009801 148.5776 211.5996 14.34096504299787
SSTL S1-4               
1 43618U 18071A   24150.56495001  .00001837  00000+0  17347-3 0  9994
2 43618  97.6058  37.6506 0007128 135.6630 224.5162 14.94896113311023
HAIYANG-2B              
1 43655U 18081A   24150.56283415  .00000021  00000+0  63158-4 0  9996
2 43655  99.3362 159.3217 0002221 102.6172 257.5229 13.79328707281720
CZ-4B R/B               
1 43656U 18081B   24150.58509019  .00000183  00000+0  73362-4 0  9997
2 43656  99.4457 355.4610 0205529 260.2287  97.5630 14.31225740292190
CFOSAT                  
1 43662U 18083A   24150.60019411  .00005120  00000+0  26827-3 0  9990
2 43662  97.3758 165.7041 0000826  58.4669 301.6645 15.16218495309087
2018-083B               
1 43663U 18083B   24150.60620313  .00052219  00000+0  78596-3 0  9991
2 43663  97.3259 183.3263 0002082 307.3389  52.7675 15.54667091310336
2018-083C               
1 43664U 18083C   24150.55000233  .00022256  00000+0  53682-3 0  9996
2 43664  97.3435 177.3311 0005187 349.0014  11.1119 15.41218420310052
2018-083D               
1 43665U 18083D   24150.55622530  .00023412  00000+0  54801-3 0  9996
2 43665  97.3433 178.2930 0005888 345.5214  14.5864 15.42110142310102
2018-083G               
1 43668U 18083G   24150.59383413  .00073863  00000+0  91043-3 0  9991
2 43668  97.3326 182.7560 0001532 281.9083  78.2002 15.59960498310470
TEN-KOH                 
1 43677U 18084G   24150.41291940  .00002521  00000+0  23041-3 0  9992
2 43677  98.0607 303.3978 0014980  80.7771 279.5143 14.95899398303916
DIWATA-2B               
1 43678U 18084H   24150.60418569  .00001865  00000+0  17512-3 0  9998
2 43678  98.0701 308.0521 0010445  92.5560 267.6856 14.95222484304148
STARS-AO                
1 43679U 18084J   24150.43150904  .00004345  00000+0  33741-3 0  9994
2 43679  98.0580 313.6977 0004264 139.6158 220.5382 15.01894443304453
AUTCUBE 2               
1 43681U 18084K   24150.40845024  .00003845  00000+0  31800-3 0  9996
2 43681  98.0687 310.6109 0009843  77.6071 282.6252 14.99517902304263
METOP-C                 
1 43689U 18087A   24150.55863080  .00000182  00000+0  10340-3 0  9992
2 43689  98.7242 210.0519 0003013 125.8830 234.2627 14.21480273288473
ES'HAIL 2               
1 43700U 18090A   24150.48181258  .00000149  00000+0  00000+0 0  9993
2 43700   0.0133 288.7105 0002011 177.5431 340.5146  1.00273505 20172
TIANPING 1B             
1 43714U 18094E   24150.48282163  .00013082  00000+0  31842-3 0  9991
2 43714  97.3700 168.4642 0007666 353.6062   6.5085 15.41043426307833
MOHAMMED VI-B           
1 43717U 18095A   24150.56085801  .00001144  00000+0  16940-3 0  9992
2 43717  97.9549 222.6289 0000861  83.0696 277.0612 14.77048094297675
HYSIS                   
1 43719U 18096A   24150.51394938  .00001820  00000+0  25526-3 0  9995
2 43719  97.8667 214.8399 0002031  58.6284 301.5126 14.78661714296789
COSMOS 2530             
1 43751U 18097A   24150.58659879  .00000034  00000+0  17248-3 0  9995
2 43751  82.5135 326.9350 0019161 227.0166 132.9308 12.42882116249293
COSMOS 2531             
1 43752U 18097B   24150.53331790  .00000032  00000+0  16303-3 0  9999
2 43752  82.5181 327.7531 0016223 245.1369 114.8024 12.42889244249302
